FLOCK 4G-23             
1 62647U 25009AQ  26068.71663397  .00012440  00000+0  46816-3 0  9993
2 62647  97.3979 150.9478 0000905   7.2707 352.8545 15.27262579 63728
STARLINK-34025          
1 63824U 25092W   26068.32904435  .00031444  00000+0  11471-2 0  9994
2 63824  42.9976 174.2202 0001362 270.1962  89.8733 15.27584421 48503
